{"type": "FeatureCollection", "features": [{"type": "Feature", "properties": {"norad_id": 25590, "name": "COSMOS 2361", "group": "musson", "lat": 75.73645581206789, "lon": 19.149397956419218, "alt_km": 999.8893819308332, "timestamp": "2025-12-04T19:33:59.873823+00:00", "meta": {"OBJECT_NAME": "COSMOS 2361", "OBJECT_ID": "1998-076A", "EPOCH": "2025-12-04T03:46:53.901984", "MEAN_MOTION": 13.73216093, "ECCENTRICITY": 0.00301484, "INCLINATION": 82.9341, "RA_OF_ASC_NODE": 350.4345, "ARG_OF_PERICENTER": 290.5381, "MEAN_ANOMALY": 137.2839, "EPHEMERIS_TYPE": 0, "CLASSIFICATION_TYPE": "U", "NORAD_CAT_ID": 25590, "ELEMENT_SET_NO": 999, "REV_AT_EPOCH": 34993, "BSTAR": 9.2888965e-05, "MEAN_MOTION_DOT": 1.01e-06, "MEAN_MOTION_DDOT": 0}, "tle": {"line1": "1 25590U 98076A   25338.15756831  .00000101  00000+0  92889-4 0  9999", "line2": "2 25590  82.9341 350.4345 0030148 290.5381 137.2839 13.73216093349934"}}, "geometry": {"type": "Point", "coordinates": [19.149397956419218, 75.73645581206789]}}, {"type": "Feature", "properties": {"norad_id": 26818, "name": "COSMOS 2378", "group": "musson", "lat": 55.93487772359585, "lon": 175.0223980999338, "alt_km": 985.0920774887072, "timestamp": "2025-12-04T19:33:59.873843+00:00", "meta": {"OBJECT_NAME": "COSMOS 2378", "OBJECT_ID": "2001-023A", "EPOCH": "2025-12-04T03:31:38.059392", "MEAN_MOTION": 13.74140966, "ECCENTRICITY": 0.00319506, "INCLINATION": 82.9279, "RA_OF_ASC_NODE": 6.0967, "ARG_OF_PERICENTER": 229.4062, "MEAN_ANOMALY": 190.1028, "EPHEMERIS_TYPE": 0, "CLASSIFICATION_TYPE": "U", "NORAD_CAT_ID": 26818, "ELEMENT_SET_NO": 999, "REV_AT_EPOCH": 22805, "BSTAR": 9.6677365e-05, "MEAN_MOTION_DOT": 1.06e-06, "MEAN_MOTION_DDOT": 0}, "tle": {"line1": "1 26818U 01023A   25338.14696828  .00000106  00000+0  96677-4 0  9991", "line2": "2 26818  82.9279   6.0967 0031950 229.4062 190.1028 13.74140966228054"}}, "geometry": {"type": "Point", "coordinates": [175.0223980999338, 55.93487772359585]}}, {"type": "Feature", "properties": {"norad_id": 27436, "name": "COSMOS 2389", "group": "musson", "lat": -57.91729754230799, "lon": -58.53390359907676, "alt_km": 1015.3980955413645, "timestamp": "2025-12-04T19:33:59.873854+00:00", "meta": {"OBJECT_NAME": "COSMOS 2389", "OBJECT_ID": "2002-026A", "EPOCH": "2025-12-04T08:13:02.946144", "MEAN_MOTION": 13.75153316, "ECCENTRICITY": 0.00477652, "INCLINATION": 82.9495, "RA_OF_ASC_NODE": 313.2019, "ARG_OF_PERICENTER": 83.5513, "MEAN_ANOMALY": 38.5368, "EPHEMERIS_TYPE": 0, "CLASSIFICATION_TYPE": "U", "NORAD_CAT_ID": 27436, "ELEMENT_SET_NO": 999, "REV_AT_EPOCH": 18033, "BSTAR": 7.8384773e-05, "MEAN_MOTION_DOT": 9.1e-07, "MEAN_MOTION_DDOT": 0}, "tle": {"line1": "1 27436U 02026A   25338.34239521  .00000091  00000+0  78385-4 0  9996", "line2": "2 27436  82.9495 313.2019 0047765  83.5513  38.5368 13.75153316180337"}}, "geometry": {"type": "Point", "coordinates": [-58.53390359907676, -57.91729754230799]}}, {"type": "Feature", "properties": {"norad_id": 27818, "name": "COSMOS 2398", "group": "musson", "lat": -26.66809691383855, "lon": -85.0261697822616, "alt_km": 1018.9839235478739, "timestamp": "2025-12-04T19:33:59.873864+00:00", "meta": {"OBJECT_NAME": "COSMOS 2398", "OBJECT_ID": "2003-023A", "EPOCH": "2025-12-04T06:30:56.105280", "MEAN_MOTION": 13.72384481, "ECCENTRICITY": 0.00322601, "INCLINATION": 82.9477, "RA_OF_ASC_NODE": 278.939, "ARG_OF_PERICENTER": 134.5424, "MEAN_ANOMALY": 33.6574, "EPHEMERIS_TYPE": 0, "CLASSIFICATION_TYPE": "U", "NORAD_CAT_ID": 27818, "ELEMENT_SET_NO": 999, "REV_AT_EPOCH": 12700, "BSTAR": 6.6665711e-05, "MEAN_MOTION_DOT": 7.6e-07, "MEAN_MOTION_DDOT": 0}, "tle": {"line1": "1 27818U 03023A   25338.27148270  .00000076  00000+0  66666-4 0  9992", "line2": "2 27818  82.9477 278.9390 0032260 134.5424  33.6574 13.72384481127008"}}, "geometry": {"type": "Point", "coordinates": [-85.0261697822616, -26.66809691383855]}}, {"type": "Feature", "properties": {"norad_id": 28380, "name": "COSMOS 2407", "group": "musson", "lat": 56.30469785343859, "lon": -130.56307859959085, "alt_km": 943.4532124053312, "timestamp": "2025-12-04T19:33:59.873874+00:00", "meta": {"OBJECT_NAME": "COSMOS 2407", "OBJECT_ID": "2004-028A", "EPOCH": "2025-12-04T04:08:04.971264", "MEAN_MOTION": 13.76312221, "ECCENTRICITY": 0.0040515, "INCLINATION": 82.9613, "RA_OF_ASC_NODE": 219.2354, "ARG_OF_PERICENTER": 78.0751, "MEAN_ANOMALY": 35.0272, "EPHEMERIS_TYPE": 0, "CLASSIFICATION_TYPE": "U", "NORAD_CAT_ID": 28380, "ELEMENT_SET_NO": 999, "REV_AT_EPOCH": 7305, "BSTAR": 0.00010845447, "MEAN_MOTION_DOT": 1.22e-06, "MEAN_MOTION_DDOT": 0}, "tle": {"line1": "1 28380U 04028A   25338.17227976  .00000122  00000+0  10845-3 0  9992", "line2": "2 28380  82.9613 219.2354 0040515  78.0751  35.0272 13.76312221 73053"}}, "geometry": {"type": "Point", "coordinates": [-130.56307859959085, 56.30469785343859]}}, {"type": "Feature", "properties": {"norad_id": 28521, "name": "COSMOS 2414", "group": "musson", "lat": -9.670591757700292, "lon": -170.55647337316788, "alt_km": 969.2868541025609, "timestamp": "2025-12-04T19:33:59.873884+00:00", "meta": {"OBJECT_NAME": "COSMOS 2414", "OBJECT_ID": "2005-002A", "EPOCH": "2025-12-04T02:18:41.717088", "MEAN_MOTION": 13.87901271, "ECCENTRICITY": 0.00403607, "INCLINATION": 82.9499, "RA_OF_ASC_NODE": 191.1955, "ARG_OF_PERICENTER": 163.9707, "MEAN_ANOMALY": 196.2744, "EPHEMERIS_TYPE": 0, "CLASSIFICATION_TYPE": "U", "NORAD_CAT_ID": 28521, "ELEMENT_SET_NO": 999, "REV_AT_EPOCH": 5675, "BSTAR": 0.00010319171, "MEAN_MOTION_DOT": 1.39e-06, "MEAN_MOTION_DDOT": 0}, "tle": {"line1": "1 28521U 05002A   25338.09631617  .00000139  00000+0  10319-3 0  9998", "line2": "2 28521  82.9499 191.1955 0040360 163.9707 196.2744 13.87901271 56753"}}, "geometry": {"type": "Point", "coordinates": [-170.55647337316788, -9.670591757700292]}}, {"type": "Feature", "properties": {"norad_id": 32052, "name": "COSMOS 2429", "group": "musson", "lat": 51.16088625153164, "lon": 160.34921216874608, "alt_km": 965.791784873114, "timestamp": "2025-12-04T19:33:59.873894+00:00", "meta": {"OBJECT_NAME": "COSMOS 2429", "OBJECT_ID": "2007-038A", "EPOCH": "2025-12-04T06:43:31.388160", "MEAN_MOTION": 13.75148168, "ECCENTRICITY": 0.0039595, "INCLINATION": 82.9805, "RA_OF_ASC_NODE": 349.5456, "ARG_OF_PERICENTER": 60.8741, "MEAN_ANOMALY": 299.6369, "EPHEMERIS_TYPE": 0, "CLASSIFICATION_TYPE": "U", "NORAD_CAT_ID": 32052, "ELEMENT_SET_NO": 999, "REV_AT_EPOCH": 91486, "BSTAR": 7.7958251e-05, "MEAN_MOTION_DOT": 9.1e-07, "MEAN_MOTION_DDOT": 0}, "tle": {"line1": "1 32052U 07038A   25338.28022440  .00000091  00000+0  77958-4 0  9992", "line2": "2 32052  82.9805 349.5456 0039595  60.8741 299.6369 13.75148168914865"}}, "geometry": {"type": "Point", "coordinates": [160.34921216874608, 51.16088625153164]}}, {"type": "Feature", "properties": {"norad_id": 35635, "name": "COSMOS 2454", "group": "musson", "lat": -17.26354491938366, "lon": 172.44976695727738, "alt_km": 939.3694130884633, "timestamp": "2025-12-04T19:33:59.873903+00:00", "meta": {"OBJECT_NAME": "COSMOS 2454", "OBJECT_ID": "2009-039A", "EPOCH": "2025-12-04T06:39:36.744768", "MEAN_MOTION": 13.89927112, "ECCENTRICITY": 0.00204931, "INCLINATION": 82.9557, "RA_OF_ASC_NODE": 175.0596, "ARG_OF_PERICENTER": 96.3483, "MEAN_ANOMALY": 77.2751, "EPHEMERIS_TYPE": 0, "CLASSIFICATION_TYPE": "U", "NORAD_CAT_ID": 35635, "ELEMENT_SET_NO": 999, "REV_AT_EPOCH": 83032, "BSTAR": 9.7860074e-05, "MEAN_MOTION_DOT": 1.37e-06, "MEAN_MOTION_DDOT": 0}, "tle": {"line1": "1 35635U 09039A   25338.27750862  .00000137  00000+0  97860-4 0  9995", "line2": "2 35635  82.9557 175.0596 0020493  96.3483  77.2751 13.89927112830322"}}, "geometry": {"type": "Point", "coordinates": [172.44976695727738, -17.26354491938366]}}, {"type": "Feature", "properties": {"norad_id": 36519, "name": "COSMOS 2463", "group": "musson", "lat": -3.721531111622416, "lon": -147.0038832076645, "alt_km": 1012.609911108957, "timestamp": "2025-12-04T19:33:59.873913+00:00", "meta": {"OBJECT_NAME": "COSMOS 2463", "OBJECT_ID": "2010-017A", "EPOCH": "2025-12-04T06:45:04.885920", "MEAN_MOTION": 13.71648059, "ECCENTRICITY": 0.00350797, "INCLINATION": 82.962, "RA_OF_ASC_NODE": 32.9279, "ARG_OF_PERICENTER": 312.3201, "MEAN_ANOMALY": 116.4095, "EPHEMERIS_TYPE": 0, "CLASSIFICATION_TYPE": "U", "NORAD_CAT_ID": 36519, "ELEMENT_SET_NO": 999, "REV_AT_EPOCH": 78121, "BSTAR": 9.888716e-05, "MEAN_MOTION_DOT": 1.04e-06, "MEAN_MOTION_DDOT": 0}, "tle": {"line1": "1 36519U 10017A   25338.28130655  .00000104  00000+0  98887-4 0  9992", "line2": "2 36519  82.9620  32.9279 0035079 312.3201 116.4095 13.71648059781210"}}, "geometry": {"type": "Point", "coordinates": [-147.0038832076645, -3.721531111622416]}}]}